[{"OBJECT_NAME":"TISAT 1","OBJECT_ID":"2010-035E","EPOCH":"2026-03-09T18:10:07.877568","MEAN_MOTION":15.27628633,"ECCENTRICITY":0.00013432,"INCLINATION":98.0645,"RA_OF_ASC_NODE":6.8512,"ARG_OF_PERICENTER":159.303,"MEAN_ANOMALY":200.8262,"EPHEMERIS_TYPE":0,"CLASSIFICATION_TYPE":"U","NORAD_CAT_ID":36799,"ELEMENT_SET_NO":999,"REV_AT_EPOCH":85250,"BSTAR":0.00091004793,"MEAN_MOTION_DOT":0.00024554,"MEAN_MOTION_DDOT":0},{"OBJECT_NAME":"STARLINK-32415","OBJECT_ID":"2024-202S","EPOCH":"2026-03-09T12:59:44.258208","MEAN_MOTION":15.27575199,"ECCENTRICITY":0.00017932,"INCLINATION":43.0016,"RA_OF_ASC_NODE":238.9403,"ARG_OF_PERICENTER":270.3936,"MEAN_ANOMALY":89.671,"EPHEMERIS_TYPE":0,"CLASSIFICATION_TYPE":"U","NORAD_CAT_ID":61861,"ELEMENT_SET_NO":999,"REV_AT_EPOCH":7530,"BSTAR":2.703256e-5,"MEAN_MOTION_DOT":4.82e-6,"MEAN_MOTION_DDOT":0}]
