TISAT 1                 
1 36799U 10035E   26068.75703561  .00024554  00000+0  91005-3 0  9996
2 36799  98.0645   6.8512 0001343 159.3030 200.8262 15.27628633852505
STARLINK-32415          
1 61861U 24202S   26068.54148447  .00000482  00000+0  27033-4 0  9993
2 61861  43.0016 238.9403 0001793 270.3936  89.6710 15.27575199 75304
